#dP2019  4  9  0  0  0.00000000      96 __u+U IGS08 FIT  IAC
## 2048 172800.00000000   900.00000000 58582 0.0000000000000
+   97   C01C02C03C04C05C06C07C08C09C10C11C12C13C14C16E01E02
+        E03E04E05E07E08E09E11E12E13E14E15E18E19E21E24E25E26
+        E27E30E31E33E36G01G02G03G04G05G06G07G08G09G10G11G12
+        G13G14G15G16G17G18G19G20G21G22G23G24G25G26G27G28G29
+        G30G31G32J01J02J03R01R02R03R04R05R07R08R09R10R11R13
+        R14R15R16R17R18R19R20R21R22R23R24R26  0  0  0  0  0
++        12 12 12 12 12  8  8  8  8  8  7  7  8  7  0  4  4
++         4  4  4  4  4  4  5  4  4  4  4  4  4  4  4  4  4
++         4  4  4  0  5  3  3  3  4  3  3  3  3  3  3  3  3
++         3  3  3  3  3  3  3  3  3  3  3  3  3  3  3  3  3
++         3  3  0  9 10  9  5  5  5  5  6  5  5  5  5  5  6
++         5  5  6  5  5  5  6  5  5  5  6  8  0  0  0  0  0
%c M  cc GPS ccc cccc cccc cccc cccc ccccc ccccc ccccc ccccc
%c cc cc ccc ccc cccc cccc cccc cccc ccccc ccccc ccccc ccccc
%f  1.2500000  1.025000000  0.00000000000  0.000000000000000
%f  0.0000000  0.000000000  0.00000000000  0.000000000000000
%i    0    0    0    0      0      0      0      0         0
%i    0    0    0    0      0      0      0      0         0
/* INFORMATION & ANALYSIS CENTER (IAC)            FINAL DATA
/* S/V CLOCKS ARE ALIGNED TO GPS & GLONASS TIME RESPECTIVELY
/* USING THE BROADCAST EPHEMERIS                            
/* PCV:IGS14_2038 OL/AL:FES2004  NONE     YN ORB:CoN CLK:CoN
*  2019 04 09 14  0  0.00000000
PC01 -32331.985451  27052.022874   -278.262661    437.546067
PC02   4375.791182  41951.117120    931.287502    231.079102
PC03 -14870.099785  39472.083120    472.220100     97.137808
PC04 -39626.559930  14371.992684    358.121886   -154.650857
PC05  21897.854874  36024.910422    871.184157   -217.889853
PC06 -24827.983544  32141.857943 -11668.585468    655.164090
PC07  -9332.186552  34236.529054 -22287.297158   -290.408988
PC08 -14546.394297  17829.497998  35385.909479    142.984028
PC09 -11929.027519  31858.645856 -24926.180639    672.469518
PC10   1263.641837  40336.028169 -11382.355042   -648.500966
PC11  17877.901334   8559.823253  19720.812373    -92.968178
PC12 -11991.820452  16527.593043  19050.922831    563.138730
PC13   1681.805360  24482.912639  34377.626047   -642.709363
PC14   4055.501790  24005.910812 -13612.512018    693.735773
PC16      0.000000      0.000000      0.000000 999999.999999
PE01  -3655.943620 -27084.094521  11363.638965   -580.089098
PE02   3684.907047  27102.559783 -11336.074953     55.168292
PE03  -7332.271608  25521.740986 -13061.693192   -153.310324
PE04  -9649.468719 -15103.106011  23565.566798   -257.854132
PE05 -20146.605088  21060.695457   5177.188285     77.087160
PE07  21112.339734  -4316.678737 -20285.600674   -165.397440
PE08   9730.866072  14854.341822 -23673.111075   6375.067105
PE09 -20979.845708   4549.794026  20383.091820   6474.693987
PE11 -29506.046270  -2305.530952   1041.611632   5708.752835
PE12 -20202.484202 -13420.896731 -16977.400475   6453.000630
PE13  29492.835482   2280.817966   -856.591480    385.369122
PE14   3872.827579 -22748.296004 -21733.890499   -522.703786
PE15  20520.956977  13147.779657  16802.787001    914.397638
PE18 -11903.475362  18023.564088  12267.533453   -621.977124
PE19   8931.223244 -25773.657850  11496.555451     -7.187935
PE21  10790.603428 -14177.936448  23629.299685   -528.228697
PE24 -18718.233845  -6617.912119 -21964.431305   6141.516975
PE25 -10830.477958  14124.168979 -23652.230558   1839.840410
PE26  21329.133016  -9888.484208 -17974.340600   4702.004363
PE27  18777.022320   7007.749984  21780.594546    493.440954
PE30  15741.934641  23934.669530   7456.923194   4965.071038
PE31 -15728.200361 -24035.677031  -7154.985905    861.582021
PE33    456.130833 -16342.949848 -24664.468816 999999.999999
PE36 -21219.751223   9967.463891  18087.819184    726.311349
PG01 -22255.293368 -14328.308983  -3938.116286   -198.149271
PG02   4067.090068  17392.818785  20313.342176   -184.757344
PG03 -12426.708816 -16767.408174  16438.161218    188.053265
PG04 -23968.409771   9648.466616   6175.909737    146.569267
PG05   2271.924630  26349.642261   -102.257731      1.148544
PG06  -9438.684784  11865.896326  21855.098180    234.997574
PG07 -24512.658183  -5607.023102  -8999.874123     -1.474681
PG08  -7632.965660 -12915.102719 -21874.255291   -139.283159
PG09 -23152.984683   5647.407667  11696.632625    431.691865
PG10  11680.014504 -15397.111972 -18070.954057     77.160407
PG11 -20559.237960 -10778.431997 -13221.347992   -629.740925
PG12  10460.461154  18389.223240  15956.587710    252.790798
PG13  -1876.163829  16750.517295 -20629.815068    -68.475640
PG14  15907.741203 -17946.438884  11525.614189    -85.149989
PG15  10930.524699  11779.229433 -21417.721989   -319.279477
PG16   -527.691577 -26255.640838  -1903.662102    -31.410582
PG17 -21522.988953  15185.683040   3410.748466     36.440336
PG18 -16051.455242 -17180.134158 -12973.049322     42.591251
PG19 -17423.271185  16989.647445  10451.239087   -332.657404
PG20  15085.935435  -5574.102255 -21230.880235    523.833554
PG21  23139.083141    529.643098 -12101.081720   -215.847641
PG22 -10541.910633 -22322.990751  10119.200013   -680.486578
PG23 -18002.251285  -4727.704248  19416.301026   -190.867213
PG24  20657.328162  15220.827515  -7644.045840    -64.541709
PG25  14795.017788   5775.600626  21122.641216   -743.568869
PG26   4574.050349 -24385.004323   9210.596701    171.495530
PG27   3899.631095 -17994.717855 -19124.563243   -104.564055
PG28 -12537.329324  14135.809551 -18099.827655    767.322063
PG29  21394.369407   -197.874441  15711.557030    229.550594
PG30 -19343.394359   4054.280292 -17810.583828    -83.428178
PG31   8829.932163 -12502.073726  21723.627410     46.262376
PG32      0.000000      0.000000      0.000000 999999.999999
PJ01 -28108.519557  28255.613595  18782.762133   -328.293334
PJ02 -20393.935206  19678.687009 -26874.169553      1.199687
PJ03 -29621.874287  29741.314211   9375.576316     -0.330055
PR01  11770.855246 -22297.008946  -3918.912801     42.073303
PR02   1066.854219 -20125.835511  15644.848389    362.863773
PR03  -9520.406435  -5604.296986  23033.508200     -6.552454
PR04 -14502.509353  12672.918033  16753.955689    301.799348
PR05 -11165.665341  22894.023661   1562.744734     25.798786
PR07   9688.614212   5167.333568 -22985.825798    -17.973748
PR08  14462.457813 -12020.080651 -17174.968672     18.309881
PR09  12355.726113  21689.483717  -5077.124389     63.547261
PR10  16945.994628  15871.803577  10447.744332     47.259609
PR11  12803.706001   -327.239842  22059.984064    -62.406025
PR13 -11822.392641 -21579.098702   6708.412388    -22.239801
PR14 -17217.315367 -15633.306208 -10487.418938     37.754224
PR15 -13119.808870   -664.682398 -21849.721170    101.212637
PR16  -1216.793822  15037.196809 -20631.756027     10.320484
PR17 -21173.801792  -4271.877608 -13533.987577    218.901852
PR18 -25102.099616   3662.673698   3005.049633    -10.973385
PR19 -15627.539300   9177.656324  17956.655097    -24.558866
PR20   4740.829587  10004.264278  22984.949671   -374.408560
PR21  21564.309572   3966.773108  13052.707619    -41.414195
PR22  24363.618517  -4677.049489  -5623.288402    -13.634351
PR23  10537.304108 -10350.534365 -20798.078131    220.650139
PR24  -6824.888905  -9640.840844 -22633.012596   -179.151157
PR26   2292.262578  10314.168461  23230.486056      6.176673
EOF
